H1 CPF 01  gfz 2021 10 14 12  7872 terrasarx 
H2 0702601  6201 31698    2021 10 14 12 59 42 2021 10 19 00 00 42   120 1 1  0 0 0
H9
10 0 59505  15822.000000  0    -896214.079    568977.919   6795494.839
10 0 59505  15942.000000  0     -58137.280    949078.446   6811876.458
10 0 59505  16062.000000  0     787332.896   1297889.521   6708581.164
10 0 59505  16182.000000  0    1624845.821   1609328.845   6487413.656
10 0 59505  16302.000000  0    2439085.410   1878230.759   6152236.798
10 0 59505  16422.000000  0    3215049.849   2100432.171   5708908.939
10 0 59505  16542.000000  0    3938330.647   2272837.584   5165187.521
10 0 59505  16662.000000  0    4595383.469   2393461.782   4530598.990
10 0 59505  16782.000000  0    5173787.388   2461450.398   3816278.717
10 0 59505  16902.000000  0    5662490.406   2477076.373   3034778.884
10 0 59505  17022.000000  0    6052027.634   2441711.135   2199846.242
10 0 59505  17142.000000  0    6334712.883   2357773.884   1326179.600
10 0 59505  17262.000000  0    6504797.757   2228657.518    429165.058
10 0 59505  17382.000000  0    6558591.877   2058633.946   -475403.206
10 0 59505  17502.000000  0    6494540.269   1852741.098  -1371610.601
10 0 59505  17622.000000  0    6313258.935   1616654.360  -2243708.526
10 0 59505  17742.000000  0    6017529.317   1356546.100  -3076398.684
10 0 59505  17862.000000  0    5612246.664   1078936.134  -3855106.620
10 0 59505  17982.000000  0    5104327.234    790538.052  -4566238.000
10 0 59505  18102.000000  0    4502577.009    498105.533  -5197412.636
10 0 59505  18222.000000  0    3817527.745    208281.917  -5737672.621
10 0 59505  18342.000000  0    3061243.730    -72543.266  -6177663.354
10 0 59505  18462.000000  0    2247102.357   -338368.380  -6509785.138
10 0 59505  18582.000000  0    1389554.976   -583702.196  -6728312.277
10 0 59505  18702.000000  0     503872.290   -803672.601  -6829482.874
10 0 59505  18822.000000  0    -394124.661   -994119.303  -6811556.374
10 0 59505  18942.000000  0   -1288340.269  -1151669.629  -6674839.383
10 0 59505  19062.000000  0   -2162686.209  -1273796.876  -6421681.796
10 0 59505  19182.000000  0   -3001364.759  -1358860.033  -6056439.799
10 0 59505  19302.000000  0   -3789147.846  -1406124.634  -5585408.990
10 0 59505  19422.000000  0   -4511652.779  -1415764.920  -5016728.109
10 0 59505  19542.000000  0   -5155607.892  -1388846.253  -4360249.462
10 0 59505  19662.000000  0   -5709102.203  -1327288.291  -3627379.244
10 0 59505  19782.000000  0   -6161815.741  -1233809.449  -2830888.481
10 0 59505  19902.000000  0   -6505223.813  -1111853.191  -1984695.701
10 0 59505  20022.000000  0   -6732769.745   -965497.628  -1103625.584
10 0 59505  20142.000000  0   -6840002.209   -799350.451   -203147.003
10 0 59505  20262.000000  0   -6824671.229   -618430.244    700904.824
10 0 59505  20382.000000  0   -6686780.365   -428038.915   1592614.185
10 0 59505  20502.000000  0   -6428593.967   -233628.430   2456274.289
10 0 59505  20622.000000  0   -6054598.473    -40664.368   3276672.918
10 0 59505  20742.000000  0   -5571418.457    145509.952   4039368.171
10 0 59505  20862.000000  0   -4987690.036    319804.692   4730947.422
10 0 59505  20982.000000  0   -4313895.902    477506.940   5339264.191
10 0 59505  21102.000000  0   -3562167.429    614394.212   5853649.244
10 0 59505  21222.000000  0   -2746057.325    726834.551   6265094.335
10 0 59505  21342.000000  0   -1880287.943    811871.133   6566404.684
10 0 59505  21462.000000  0    -980480.044    867291.155   6752319.097
10 0 59505  21582.000000  0     -62868.359    891676.583   6819594.931
10 0 59505  21702.000000  0     855990.859    884436.020   6767060.391
10 0 59505  21822.000000  0    1759517.212    845817.836   6595633.592
10 0 59505  21942.000000  0    2631404.113    776904.092   6308307.650
10 0 59505  22062.000000  0    3455913.025    679585.071   5910102.504
10 0 59505  22182.000000  0    4218160.086    556514.984   5407982.223
10 0 59505  22302.000000  0    4904388.441    411049.549   4810739.124
10 0 59505  22422.000000  0    5502223.142    247165.557   4128846.503
10 0 59505  22542.000000  0    6000904.132     69365.812   3374279.441
10 0 59505  22662.000000  0    6391490.533   -117428.898   2560305.638
10 0 59505  22782.000000  0    6667030.146   -307999.883   1701250.140
10 0 59505  22902.000000  0    6822691.571   -496959.967    812239.976
10 0 59505  23022.000000  0    6855855.672   -678886.650    -91068.729
10 0 59505  23142.000000  0    6766162.519   -848457.839   -992775.748
10 0 59505  23262.000000  0    6555511.279  -1000586.077  -1877025.637
10 0 59505  23382.000000  0    6228015.105  -1130547.383  -2728294.572
10 0 59505  23502.000000  0    5789911.835  -1234101.781  -3531668.244
10 0 59505  23622.000000  0    5249434.016  -1307602.279  -4273105.463
10 0 59505  23742.000000  0    4616642.020  -1348089.439  -4939681.961
10 0 59505  23862.000000  0    3903225.741  -1353370.244  -5519810.667
10 0 59505  23982.000000  0    3122278.650  -1322080.173  -6003435.207
10 0 59505  24102.000000  0    2288050.636  -1253726.307  -6382193.247
10 0 59505  24222.000000  0    1415685.440  -1148710.482  -6649550.176
10 0 59505  24342.000000  0     520946.210  -1008333.910  -6800901.175
10 0 59505  24462.000000  0    -380065.526   -834782.919  -6833642.195
10 0 59505  24582.000000  0   -1271193.332   -631095.355  -6747209.420
10 0 59505  24702.000000  0   -2136509.043   -401108.574  -6543088.373
10 0 59505  24822.000000  0   -2960591.220   -149389.258  -6224790.001
10 0 59505  24942.000000  0   -3728793.711    118853.204  -5797796.791
10 0 59505  25062.000000  0   -4427504.639    397869.545  -5269479.206
10 0 59505  25182.000000  0   -5044389.487    681487.350  -4648979.156
10 0 59505  25302.000000  0   -5568615.091    963240.362  -3947064.452
10 0 59505  25422.000000  0   -5991050.084   1236509.176  -3175951.706
10 0 59505  25542.000000  0   -6304435.517   1494669.013  -2349100.579
10 0 59505  25662.000000  0   -6503522.218   1731241.239  -1480982.422
10 0 59505  25782.000000  0   -6585171.291   1940046.015   -586826.608
10 0 59505  25902.000000  0   -6548413.186   2115351.239    317651.922
10 0 59505  26022.000000  0   -6394462.627   2252013.802   1216536.178
10 0 59505  26142.000000  0   -6126689.994   2345610.749   2093995.523
10 0 59505  26262.000000  0   -5750548.811   2392556.103   2934573.807
10 0 59505  26382.000000  0   -5273461.462   2390199.631   3723469.813
10 0 59505  26502.000000  0   -4704665.651   2336904.960   4446804.074
10 0 59505  26622.000000  0   -4055026.725   2232106.122   5091865.091
10 0 59505  26742.000000  0   -3336822.008   2076341.304   5647331.928
10 0 59505  26862.000000  0   -2563501.206   1871263.760   6103470.834
10 0 59505  26982.000000  0   -1749426.756   1619628.605   6452301.433
10 0 59505  27102.000000  0    -909601.574   1325255.988   6687729.849
10 0 59505  27222.000000  0     -59390.360    992972.225   6805647.651
10 0 59505  27342.000000  0     785760.859    628529.923   6803998.585
10 0 59505  27462.000000  0    1610604.182    238508.361   6682811.958
10 0 59505  27582.000000  0    2400363.498   -169804.471   6444202.361
10 0 59505  27702.000000  0    3140998.795   -588547.245   6092336.345
10 0 59505  27822.000000  0    3819457.803  -1009435.164   5633364.453
10 0 59505  27942.000000  0    4423909.813  -1423922.577   5075319.239
10 0 59505  28062.000000  0    4943956.969  -1823375.502   4427980.646
10 0 59505  28182.000000  0    5370821.097  -2199250.016   3702710.368
10 0 59505  28302.000000  0    5697501.257  -2543274.041   2912254.939
10 0 59505  28422.000000  0    5918895.964  -2847627.895   2070520.897
10 0 59505  28542.000000  0    6031888.718  -3105118.742   1192327.943
10 0 59505  28662.000000  0    6035395.541  -3309345.847    293142.401
10 0 59505  28782.000000  0    5930369.961  -3454850.648   -611203.187
10 0 59505  28902.000000  0    5719767.987  -3537249.003  -1504798.094
10 0 59505  29022.000000  0    5408470.545  -3553340.426  -2371942.470
10 0 59505  29142.000000  0    5003169.010  -3501193.412  -3197429.157
10 0 59505  29262.000000  0    4512216.111  -3380204.616  -3966814.520
10 0 59505  29382.000000  0    3945446.185  -3191130.826  -4666671.440
10 0 59505  29502.000000  0    3313969.707  -2936092.618  -5284820.473
10 0 59505  29622.000000  0    2629948.286  -2618550.417  -5810533.715
10 0 59505  29742.000000  0    1906356.984  -2243256.080  -6234710.506
10 0 59505  29862.000000  0    1156736.950  -1816179.729  -6550025.747
10 0 59505  29982.000000  0     394941.844  -1344411.587  -6751045.993
10 0 59505  30102.000000  0    -365114.998   -836043.750  -6834312.714
10 0 59505  30222.000000  0   -1109709.073   -300033.193  -6798394.545
10 0 59505  30342.000000  0   -1825546.773    253952.478  -6643909.160
10 0 59505  30462.000000  0   -2499997.310    815705.039  -6373512.991
10 0 59505  30582.000000  0   -3121310.572   1374658.656  -5991860.566
10 0 59505  30702.000000  0   -3678819.424   1920083.751  -5505533.693
10 0 59505  30822.000000  0   -4163125.039   2441289.494  -4922939.939
10 0 59505  30942.000000  0   -4566260.438   2927832.163  -4254178.081
10 0 59505  31062.000000  0   -4881827.764   3369723.913  -3510872.728
10 0 59505  31182.000000  0   -5105107.896   3757638.873  -2705981.607
10 0 59505  31302.000000  0   -5233139.022   4083112.257  -1853574.631
10 0 59505  31422.000000  0   -5264761.642   4338726.486   -968589.747
10 0 59505  31542.000000  0   -5200628.734   4518280.344    -66568.581
10 0 59505  31662.000000  0   -5043179.128   4616936.615    836622.599
10 0 59505  31782.000000  0   -4796573.892   4631342.420   1725081.308
10 0 59505  31902.000000  0   -4466597.217   4559719.300   2583158.325
10 0 59505  32022.000000  0   -4060524.260   4401921.858   3395741.702
10 0 59505  32142.000000  0   -3586960.180   4159462.863   4148529.401
10 0 59505  32262.000000  0   -3055655.312   3835504.343   4828284.873
99
